#aV2023  5 27  0  0  0.00000000     288 DD+AD WGS84 FIT  NGA
## 2263 518400.00000000   300.00000000 60091 0.0000000000000
+   32     1  2  3  4  5  6  7  8  9 10 11 12 13 14 15 16 17
+         18 19 20 21 22 23 24 25 26 27 28 29 30 31 32  0  0
+          0  0  0  0  0  0  0  0  0  0  0  0  0  0  0  0  0
+          0  0  0  0  0  0  0  0  0  0  0  0  0  0  0  0  0
+          0  0  0  0  0  0  0  0  0  0  0  0  0  0  0  0  0
++         2  2  2  2  2  2  2  2  2  2  2  2  2  2  2  2  2
++         2  2  2  2  2  2  2  2  2  2  2  2  2  2  2  0  0
++         0  0  0  0  0  0  0  0  0  0  0  0  0  0  0  0  0
++         0  0  0  0  0  0  0  0  0  0  0  0  0  0  0  0  0
++         0  0  0  0  0  0  0  0  0  0  0  0  0  0  0  0  0
%c cc cc ccc ccc cccc cccc cccc cccc ccccc ccccc ccccc ccccc
%c cc cc ccc ccc cccc cccc cccc cccc ccccc ccccc ccccc ccccc
%f  0.0000000  0.000000000  0.00000000000  0.000000000000000
%f  0.0000000  0.000000000  0.00000000000  0.000000000000000
%i    0    0    0    0      0      0      0      0         0
%i    0    0    0    0      0      0      0      0         0
/*      NGA, ST. LOUIS,MO.                                  
/*   EPHEMERIS COMPUTED FROM 2 DAYS OF DATA                 
/*   EPOCHA v8 SMOOTHER                                     
/*   G2139 IERS2010 SATIGS SATAPC                           
*  2023  5 27  1 35  0.00000000
P  1 -13801.021899  19229.537399  11344.265647    182.449452                    
V  1   2593.029322 -14915.540069  27962.825363     -0.026493                    
P  2 -15699.429833   1119.480390  21980.716864   -592.068261                    
V  2   4915.734123 -26069.514078   5194.284564      0.039796                    
P  3 -20132.161097  12889.204668 -11577.140460   -291.016555                    
V  3 -14562.829293   1522.399659  27448.730359      0.119269                    
P  4  -9687.239756  11836.814184 -21693.991699     51.903037                    
V  4 -18579.424910 -20384.769619  -2935.077677      0.099787                    
P  5  25908.235003  -4324.738920  -4523.264159   -128.739109                    
V  5  -4586.660273   3917.668045 -31112.560308     -0.014517                    
P  6   7236.142646  17694.338425 -18335.687534    587.372947                    
V  6  -7871.880055  22038.766284  18195.874466     -0.009582                    
P  7  -5461.024087  25610.522033   2824.191747    168.227243                    
V  7  -4251.792540   1965.625371 -31566.942912     -0.096226                    
P  8 -18421.095551    712.527147  19187.688794   -124.387409                    
V  8 -16503.818018 -18006.620259 -14731.833990     -0.019095                    
P  9    517.053336  19056.203689 -18547.409537   -149.890953                    
V  9 -17664.715221 -15480.559561 -16501.603198      0.085709                    
P 10  -9553.451227 -12587.399285  21574.548475    -38.594582                    
V 10  26008.426699  -6751.315937   7339.424459     -0.015801                    
P 11  14938.841948   2897.391872 -21760.000877   -211.774118                    
V 11  -8873.290767  26171.650572  -2643.756385     -0.143303                    
P 12  22650.845748 -10408.902386  -9322.576449   -380.977647                    
V 12  11707.660207    449.926065  28885.666425     -0.046874                    
P 13  19486.159537   8268.229829  15993.181796    525.567258                    
V 13  10660.680584  17627.456111 -21658.267170      0.052814                    
P 14   5949.759646  14475.236184  21482.863326     70.336248                    
V 14 -26636.969076   5889.905109   3260.040437      0.126334                    
P 15  18094.000995  -3472.564903  18762.473018     43.204223                    
V 15  18449.279716  16670.463760 -14097.905419      0.034807                    
P 16 -25780.737396  -1320.260281  -7486.966919   -497.421225                    
V 16   8563.761656  -3420.463793 -29677.722296      0.035083                    
P 17  12297.445318  22409.966242   7433.427836    716.253736                    
V 17  -7457.678327  -5327.555412  30238.048034      0.013114                    
P 18   4044.176665 -25568.370565   5564.125533   -282.834269                    
V 18   4462.635292  -6030.046662 -31092.893284     -0.155234                    
P 19  17240.581926  20360.787577  -1819.638519    322.296090                    
V 19   -476.865126   2909.712312  31716.606991      0.051146                    
P 20  22976.719368    336.357194 -13117.541128    431.379689                    
V 20 -14379.338769   9121.688819 -25072.709771     -0.020814                    
P 21 -15552.696811  10824.770713  18790.945560    153.568366                    
V 21   2803.142951 -22952.840513  16866.732303     -0.002495                    
P 22 -18532.922378 -18649.971905  -3866.583681    487.984994                    
V 22  -1362.812860  -5901.975476  31183.154199      0.062411                    
P 23   4283.804667 -15857.368434  20842.272622     27.591085                    
V 23  25727.279257  -6205.584043 -10159.053488      0.033005                    
P 24  14410.257696 -16045.618914  14865.274657   -203.215779                    
V 24   -922.920294  19955.276571  22329.324315     -0.135842                    
P 25  12395.292409 -15951.737394 -17420.249252    445.625400                    
V 25  21429.577862  -3539.838968  19091.881735      0.026273                    
P 26 -19149.794770  -7267.237625 -17202.316742    240.217009                    
V 26  19974.879308  -8381.174384 -18481.792615     -0.006183                    
P 27 -21424.576502 -10418.402658  11911.703027     29.078791                    
V 27  -9240.476956 -12423.125894 -26514.599324     -0.078976                    
P 28  -7222.464812 -19246.036443 -16844.005998     80.601004                    
V 28   6992.445571 -20242.103454  20151.974379      0.023835                    
P 29   3339.421870 -17222.264874 -19970.955871   -600.836000                    
V 29  16770.801800  18860.603146 -13585.048007     -0.012609                    
P 30   2371.662529  23372.044945  12243.953886   -514.854313                    
V 30  -7491.216192  13960.587417 -25698.810023      0.022700                    
P 31 -13478.303057  -8042.506218 -21564.586082   -216.917503                    
V 31   8748.249724 -25587.026147   4542.209618     -0.007571                    
P 32 -15607.694509 -21076.481238   5008.421279   -486.105450                    
V 32   6117.145206   2557.247348  30750.906694     -0.089398                    
EOF
